STARLINK-34886          
1 65683U 25212H   25290.17017844  .00085847  00000+0  15329-2 0  9993
2 65683  53.1583 292.7660 0001275  99.3458 260.7695 15.49341151  5217
STARLINK-34795          
1 65684U 25212J   25290.16949108  .00088139  00000+0  15732-2 0  9995
2 65684  53.1583 292.7607 0001338 102.6281 257.4877 15.49340186  5213
STARLINK-35145          
1 65685U 25212K   25289.52249438 -.00241416  00000+0 -45910-2 0  9995
2 65685  53.1584 295.8312 0000966  75.8817 284.2299 15.48537029  5112
STARLINK-35137          
1 65686U 25212L   25290.16668980 -.01445274  00000+0 -38520-1 0  9992
2 65686  53.1595 291.6312 0001399  62.4278 115.7406 15.40635863  5220
STARLINK-34856          
1 65687U 25212M   25290.16777130  .00070344  00000+0  12587-2 0  9996
2 65687  53.1585 292.7482 0001448  94.8359 265.2816 15.49372589  5211
STARLINK-34930          
1 65688U 25212N   25290.16571277  .00105717  00000+0  18805-2 0  9993
2 65688  53.1582 292.7338 0001322 103.4076 256.7081 15.49350042  5267
STARLINK-34875          
1 65689U 25212P   25290.10278352 -.00324400  00000+0 -62940-2 0  9999
2 65689  53.1582 293.0541 0001293 128.8047 231.3077 15.48278282  5251
STARLINK-34790          
1 65690U 25212Q   25290.16650764 -.00292293  00000+0 -55709-2 0  9997
2 65690  53.1581 292.7393 0000665  35.0801 325.0251 15.48667663  5218
STARLINK-34691          
1 65691U 25212R   25290.16668980 -.00125004  00000+0 -22703-2 0  9990
2 65691  53.1589 291.5694 0001357  93.7805 115.0060 15.49373803  5320
STARLINK-34825          
1 65692U 25212S   25290.16605654  .00107117  00000+0  19050-2 0  9994
2 65692  53.1584 292.7370 0001324  98.9645 261.1514 15.49349366  5259
STARLINK-35060          
1 65693U 25212T   25290.16668980 -.01282044  00000+0 -25087-1 0  9998
2 65693  53.1590 291.5653 0001324 107.8811 102.7659 15.49728745  5323
STARLINK-35204          
1 65694U 25212U   25290.16502609  .00105952  00000+0  18848-2 0  9991
2 65694  53.1582 292.7296 0001335 102.7762 257.3396 15.49346991  5270
STARLINK-35221          
1 65695U 25212V   25290.16467769  .00103580  00000+0  18450-2 0  9993
2 65695  53.1585 292.7269 0001365  93.2571 266.8594 15.49322496  5278
STARLINK-34734          
1 65696U 25212W   25290.16433900  .00106636  00000+0  18967-2 0  9992
2 65696  53.1584 292.7251 0001327 102.7792 257.3365 15.49347640  5266
STARLINK-35113          
1 65697U 25212X   25290.16399194  .00056402  00000+0  10126-2 0  9993
2 65697  53.1584 292.7225 0001288 105.2720 254.8432 15.49370726  5261
STARLINK-35090          
1 65698U 25212Y   25290.16365120  .00110481  00000+0  19634-2 0  9997
2 65698  53.1582 292.7203 0001452  87.8541 272.2635 15.49354525  5263
STARLINK-35086          
1 65699U 25212Z   25290.16668980 -.02076063  00000+0 -54633-1 0  9996
2 65699  53.1593 292.7442 0001178  89.9113 267.7539 15.41692911  5228
STARLINK-35101          
1 65700U 25212AA  25289.96978566  .00106178  00000+0  18890-2 0  9992
2 65700  53.1584 293.6442 0001096  94.9966 265.1168 15.49344080  5186
STARLINK-35046          
1 65701U 25212AB  25290.16262132  .00112939  00000+0  20070-2 0  9997
2 65701  53.1585 292.7130 0001266 103.3170 256.7980 15.49343983  5261
STARLINK-35075          
1 65702U 25212AC  25290.16227765  .00115520  00000+0  20518-2 0  9997
2 65702  53.1586 292.7108 0001242 100.1276 259.9873 15.49347301  5268
STARLINK-34839          
1 65703U 25212AD  25290.16193516  .00110349  00000+0  19615-2 0  9994
2 65703  53.1586 292.7082 0001350  98.8194 261.2968 15.49347907  5265
SHIKONGXING 01          
1 65712U 25214A   25284.73474475  .00059666  00000+0  12338-2 0  9997
2 65712  50.2785  19.9438 0189906 282.4465  75.5305 15.28198897  2609
GEESAT-6 01             
1 65713U 25214B   25283.13770470  .00004776  00000+0  55729-3 0  9999
2 65713  50.6954  27.2968 0150037 221.5236 137.4234 14.79039869  2365
GEESAT-6 02             
1 65714U 25214C   25283.26823601  .00001828  00000+0  23223-3 0  9998
2 65714  49.9854  28.0347 0013183 350.9367   9.1333 14.86159418  2386
GEESAT-6 03             
1 65715U 25214D   25286.53911731  .00001023  00000+0  26021-3 0  9990
2 65715  50.0405  13.7072 0247865  68.6999 294.0191 14.41916380  2879
GEESAT-6 04             
1 65716U 25214E   25287.60856160  .00003027  00000+0  33740-3 0  9996
2 65716  50.0473   9.0249 0243555  43.8935 318.1069 14.70796125  3032
GEESAT-6 05             
1 65717U 25214F   25287.29623128  .00003469  00000+0  39931-3 0  9996
2 65717  50.4632  10.0774 0065452 319.9627  39.6505 14.86590940  2989
GEESAT-6 06             
1 65718U 25214G   25289.03363912  .00058053  00000+0  12286-2 0  9995
2 65718  49.0405   2.9295 0609729  39.9600 324.4578 14.46087766  3249
GEESAT-6 07             
1 65719U 25214H   25285.53156133  .00046035  00000+0  17210-2 0  9991
2 65719  49.0500  21.3342 0268512 223.1647 134.7955 14.99308588  2733
GEESAT-6 08             
1 65720U 25214J   25285.27020681  .00363326  31122-4  19103-2 0  9994
2 65720  55.4707  19.3992 0528944 245.0727 109.4447 14.88168379  2682
GEESAT-6 09             
1 65721U 25214K   25284.60280958  .00001081  00000+0  34217-3 0  9993
2 65721  50.0406  24.4586 0590177  91.3925 275.4615 13.77384907  2589
GEESAT-6 10             
1 65722U 25214L   25287.17733514  .00004683  00000+0  41870-3 0  9994
2 65722  51.2867  10.4177 0161239  78.6722 283.2304 14.88273722  2960
GEESAT-6 11             
1 65723U 25214M   25288.70045191 -.17677196  00000+0 -71662-3 0  9999
2 65723  50.2842   2.4838 1345606 192.2822 164.1930 13.37123664  3173
DRAGONFLY               
1 65729U 98067XH  25288.68789506  .00097945  00000+0  13667-2 0  9991
2 65729  51.6315  69.1395 0000896  87.6023 272.5071 15.56088163  4083
1998-067XJ              
1 65730U 98067XJ  25288.65838914  .00187168  00000+0  22241-2 0  9993
2 65730  51.6307  68.9415 0006017 326.8981  33.1635 15.59990499  4082
1998-067XK              
1 65731U 98067XK  25289.65983764  .00068283  00000+0  99141-3 0  9999
2 65731  51.6317  64.3792 0002499 333.9340  26.1525 15.55168653  4232
RSP-03                  
1 65732U 98067XL  25290.16946264  .00092630  00000+0  13080-2 0  9992
2 65732  51.6313  61.7818 0002998 340.4541  19.6334 15.55789125  4327
GHS-01                  
1 65733U 98067XM  25289.58406546  .00097950  00000+0  13407-2 0  9994
2 65733  51.6320  64.6240 0000837  53.6715 306.4354 15.56608496  4234
STARLINK-34086          
1 65734U 25216A   25290.16668980 -.02116674  00000+0 -48454-1 0  9997
2 65734  53.1595 282.2000 0001049  86.0124 220.3632 15.45845503  4477
STARLINK-35099          
1 65735U 25216B   25290.16668980 -.00132877  00000+0 -24159-2 0  9996
2 65735  53.1595 282.1849 0001977  93.6778 219.4822 15.49375454  4520
STARLINK-35167          
1 65736U 25216C   25290.16668980 -.00138799  00000+0 -25259-2 0  9998
2 65736  53.1595 282.1820 0001417  88.6244 226.4546 15.49377659  4587
STARLINK-35121          
1 65737U 25216D   25290.16668980 -.00141104  00000+0 -25685-2 0  9996
2 65737  53.1595 282.1774 0001613  89.0112 227.9845 15.49378921  4584
STARLINK-35108          
1 65738U 25216E   25290.16668980 -.00059443  00000+0 -10675-2 0  9994
2 65738  53.1597 282.1745 0001517  89.3871 229.5307 15.49342812  4630
STARLINK-35106          
1 65739U 25216F   25290.16668980 -.00227339  00000+0 -41834-2 0  9997
2 65739  53.1593 282.1694 0001455  86.4466 234.3840 15.49416009  4523
STARLINK-35130          
1 65740U 25216G   25290.16668980 -.00138628  00000+0 -25228-2 0  9990
2 65740  53.1595 282.1654 0001510  91.0551 231.6926 15.49375522  4633
STARLINK-35284          
1 65741U 25216H   25290.16668980 -.02114000  00000+0 -45765-1 0  9998
2 65741  53.1596 282.1641 0001008  99.5507 223.6783 15.47442044  4585
STARLINK-35316          
1 65742U 25216J   25290.16668980 -.00139448  00000+0 -25379-2 0  9990
2 65742  53.1595 282.1575 0001462  92.7762 233.8031 15.49377569  4583
STARLINK-35319          
1 65743U 25216K   25290.16668980 -.00129789  00000+0 -23588-2 0  9998
2 65743  53.1595 282.1534 0001884  90.8533 237.6416 15.49374827  4631
STARLINK-35173          
1 65744U 25216L   25290.16668980 -.00155247  00000+0 -28310-2 0  9995
2 65744  53.1595 282.1495 0001452  91.4988 238.9119 15.49388319  4635
STARLINK-34808          
1 65745U 25216M   25290.16668980 -.00266841  00000+0 -49257-2 0  9992
2 65745  53.1593 282.1449 0002242  96.0371 236.2670 15.49473413  4552
STARLINK-34704          
1 65746U 25216N   25290.16668980 -.00137885  00000+0 -25089-2 0  9995
2 65746  53.1595 282.1375 0001476  88.4923 247.6732 15.49376793  4579
STARLINK-35214          
1 65747U 25216P   25290.16668980 -.00141697  00000+0 -25797-2 0  9998
2 65747  53.1595 282.1416 0001572  92.7176 241.5320 15.49376803  4580
STARLINK-35265          
1 65748U 25216Q   25290.16668980 -.00054135  00000+0 -97091-3 0  9996
2 65748  53.1594 282.1294 0001418  90.8278 249.1766 15.49340801  4582
STARLINK-35288          
1 65749U 25216R   25290.16668980 -.00133043  00000+0 -24196-2 0  9998
2 65749  53.1595 282.1248 0001422  97.0673 244.8514 15.49370858  4528
STARLINK-35165          
1 65750U 25216S   25290.16668980 -.00156727  00000+0 -28586-2 0  9991
2 65750  53.1594 282.1176 0001327  89.9462 255.8002 15.49388294  4526
STARLINK-35260          
1 65751U 25216T   25290.16668980 -.00146515  00000+0 -26690-2 0  9990
2 65751  53.1594 282.1126 0001182  91.2096 256.4536 15.49382158  4588
STARLINK-34893          
1 65752U 25216U   25290.16668980 -.02136065  00000+0 -44124-1 0  9993
2 65752  53.1593 282.1330 0000753  92.0522 245.9122 15.48812986  4479
STARLINK-34894          
1 65753U 25216V   25290.16668980 -.00138852  00000+0 -25269-2 0  9998
2 65753  53.1595 282.1210 0001393  91.3543 252.4779 15.49376525  4550
STARLINK-35287          
1 65754U 25216W   25290.16668980 -.00114323  00000+0 -20736-2 0  9990
2 65754  53.1594 282.1054 0001981  90.9515 260.5521 15.49361675  4479
